#aV2020  9 14  0  0  0.00000000     288 DD+AD WGS84 FIT  NGA
## 2123  86400.00000000   300.00000000 59106 0.0000000000000
+   31     1  2  3  4  5  6  7  8  9 10 11 12 13 15 16 17 18
+         19 20 21 22 23 24 25 26 27 28 29 30 31 32  0  0  0
+          0  0  0  0  0  0  0  0  0  0  0  0  0  0  0  0  0
+          0  0  0  0  0  0  0  0  0  0  0  0  0  0  0  0  0
+          0  0  0  0  0  0  0  0  0  0  0  0  0  0  0  0  0
++         2  2  2  2  2  2  2  2  2  2  2  2  2  2  2  2  2
++         2  2  2  2  2  2  2  2  2  2  2  2  2  2  0  0  0
++         0  0  0  0  0  0  0  0  0  0  0  0  0  0  0  0  0
++         0  0  0  0  0  0  0  0  0  0  0  0  0  0  0  0  0
++         0  0  0  0  0  0  0  0  0  0  0  0  0  0  0  0  0
%c cc cc ccc ccc cccc cccc cccc cccc ccccc ccccc ccccc ccccc
%c cc cc ccc ccc cccc cccc cccc cccc ccccc ccccc ccccc ccccc
%f  0.0000000  0.000000000  0.00000000000  0.000000000000000
%f  0.0000000  0.000000000  0.00000000000  0.000000000000000
%i    0    0    0    0      0      0      0      0         0
%i    0    0    0    0      0      0      0      0         0
/*      NGA, ST. LOUIS,MO.                                  
/*   EPHEMERIS COMPUTED FROM 2 DAYS OF DATA                 
/*   EPOCHA v5 SMOOTHER                                     
/*   G1762 IERS2010 SATAF SATAPC                            
*  2020  9 14 22 15  0.00000000
P  1 -13722.723633   7247.023014  21264.822360     36.019687                    
V  1  -2754.020508 -27435.109662   7806.285390     -0.003272                    
P  2  13766.897851  15390.276426 -16082.575626   -516.486014                    
V  2   1270.553446  21680.931023  20975.721043     -0.051886                    
P  3 -23083.370270  12199.939310   4494.352203   -299.194016                    
V  3   3263.503677  -5510.607800  31265.857221     -0.106548                    
P  4 -20093.853512   3129.376049 -17096.732627   -135.957770                    
V  4 -18528.302297 -11447.647293  19635.185284     -0.041480                    
P  5  17591.708536   4303.194908 -19643.489981    -21.109803                    
V  5 -19029.082363  15601.772805 -13541.634318     -0.008734                    
P  6   6025.989133  25163.296871  -5854.035311   -325.668133                    
V  6  -1517.817939   7644.944448  31059.649332     -0.033283                    
P  7  -6585.848460  22577.270216 -11524.686991   -372.581146                    
V  7  -4154.690935 -15070.337961 -26891.262149     -0.081895                    
P  8 -24837.395222  -4832.426694   8517.176929    -47.986039                    
V  8  -8878.020694  -6365.951715 -29283.471140     -0.013904                    
P  9  -9474.525995  12473.481854 -21507.381191   -286.071837                    
V  9 -24620.016091 -11572.948859   4129.317834     -0.056427                    
P 10   3621.615000 -18364.080032  18831.681397   -454.709658                    
V 10  20364.412679 -12407.313486 -16334.936124     -0.098542                    
P 11 -18125.364092  -1739.281281  18751.441450   -164.237670                    
V 11 -11460.774054 -22439.735871 -13189.631208      0.105729                    
P 12  23916.116049  -9704.789129   5688.334903     67.170644                    
V 12  -5268.192065   5905.589193  31102.578146     -0.050235                    
P 13  22962.507921  13348.034572   1663.657020     45.319164                    
V 13    558.432582   3311.318948 -31758.009991      0.035755                    
P 15  25178.088391   2005.835630   8468.034362   -203.649797                    
V 15   9469.995427   6741.208256 -28244.200541      0.026022                    
P 16 -18727.201714  -3981.135632 -18815.795023   -209.166507                    
V 16  19758.679229 -12267.001464 -16833.464639     -0.050554                    
P 17   8217.634780  18139.306914  18025.323416    325.969212                    
V 17 -19800.308509  -9565.917297  19068.697299      0.054894                    
P 18   6293.512872 -23299.003229 -11053.544912    290.238744                    
V 18   3178.114984  13862.152486 -27483.365259      0.070287                    
P 19  14878.940499  18334.592054  11935.882976   -104.836307                    
V 19 -14254.244401  -6498.058693  27025.981515      0.050666                    
P 20  13014.542503 -21093.662933   9125.392729    526.732678                    
V 20  11068.026018  -5416.801206 -28310.039896     -0.001275                    
P 21 -14072.596002 -16741.665040  16058.371043     47.163933                    
V 21  -1225.215347 -18950.388297 -21545.496074      0.041937                    
P 22 -22552.318400   7029.051898  12191.427760   -754.378797                    
V 22   9740.031773 -12202.969986  25617.641218      0.039633                    
P 23  13086.536123 -19804.613822  11869.402714     66.358113                    
V 23  13612.948379  -7004.260416 -26637.214080      0.085732                    
P 24  15143.732556  -4243.972289  21174.108265    -18.557376                    
V 24   4466.974726  27136.714081   2598.906982     -0.004008                    
P 25  19327.482311 -17424.860706  -4802.402972     49.175054                    
V 25   6423.994803   -985.575838  31212.381480      0.054238                    
P 26  -7899.953153 -13489.288500 -21493.625590    278.877682                    
V 26  22043.182262 -16089.831774   2230.407089      0.064361                    
P 27 -23382.131071 -12790.763730  -2379.601483   -395.687397                    
V 27   3380.130961   -583.538988 -31720.932802     -0.089479                    
P 28  -3572.140104  17653.934071  20154.209525    678.723960                    
V 28 -21514.929531  11183.458113 -13869.775444     -0.041035                    
P 29  13108.148176  -8883.724169 -21373.745560   -194.823925                    
V 29  23263.165254  13640.709461   8568.321027     -0.081117                    
P 30   -175.867517  26353.747531  -2079.720977   -301.824400                    
V 30  -3862.625336  -2534.142382 -31226.467383     -0.071489                    
P 31  -6974.108322 -24121.020659  -7954.688014    -68.726413                    
V 31   2527.846130 -10326.875749  29728.481458     -0.024257                    
P 32 -10027.582992 -17880.466495  17056.442001    346.299862                    
V 32  20172.129604   7470.089519  19638.153383      0.047357                    
EOF
